GPS BIIR-2  (PRN 13)    
1 24876U 97035A   23279.50556410  .00000000  00000+0  00000+0 0  9998
2 24876  55.5950 137.0874 0073888  53.0256 307.7302  2.00564380192207
GPS BIIR-4  (PRN 20)    
1 26360U 00025A   23279.88060161 -.00000040  00000+0  00000+0 0  9990
2 26360  54.4609  59.2705 0041757 201.0635 160.1532  2.00568606171534
GPS BIIR-5  (PRN 22)    
1 26407U 00040A   23279.84681488  .00000013  00000+0  00000+0 0  9995
2 26407  55.1882 254.3062 0154657 292.0496 247.6080  2.00571011170206
GPS BIIR-8  (PRN 16)    
1 27663U 03005A   23279.92185649  .00000013  00000+0  00000+0 0  9991
2 27663  55.2298 254.1137 0133024  44.8538 325.3406  2.00564175151577
GPS BIIR-9  (PRN 21)    
1 27704U 03010A   23279.62675269 -.00000116  00000+0  00000+0 0  9997
2 27704  55.1153   4.0681 0249691 319.4913  57.0474  2.00576570150355
GPS BIIR-11 (PRN 19)    
1 28190U 04009A   23279.92867301 -.00000050  00000+0  00000+0 0  9996
2 28190  55.6653 315.1729 0092514 140.1384  31.4706  2.00566413143200
GPS BIIR-13 (PRN 02)    
1 28474U 04045A   23279.64114294 -.00000116  00000+0  00000+0 0  9999
2 28474  55.4426   4.4000 0163023 283.2165  95.2041  2.00555967138689
GPS BIIRM-1 (PRN 17)    
1 28874U 05038A   23279.78196595 -.00000045  00000+0  00000+0 0  9996
2 28874  55.7161 312.6315 0140219 280.0720 168.0124  2.00573369132095
GPS BIIRM-2 (PRN 31)    
1 29486U 06042A   23279.45758174 -.00000033  00000+0  00000+0 0  9990
2 29486  54.6813 190.3831 0103846  33.1957  81.8383  2.00568042124794
GPS BIIRM-3 (PRN 12)    
1 29601U 06052A   23279.22100326  .00000017  00000+0  00000+0 0  9996
2 29601  55.2521 253.1030 0083723  79.4753 281.4544  2.00551253123650
GPS BIIRM-4 (PRN 15)    
1 32260U 07047A   23279.03682347  .00000004  00000+0  00000+0 0  9999
2 32260  53.4797 120.8262 0152402  71.4357 290.2850  2.00550037117054
GPS BIIRM-5 (PRN 29)    
1 32384U 07062A   23279.59408074 -.00000048  00000+0  00000+0 0  9996
2 32384  55.8490 313.4649 0024553 151.9873  21.3913  2.00560484115764
GPS BIIRM-6 (PRN 07)    
1 32711U 08012A   23279.44853340 -.00000033  00000+0  00000+0 0  9994
2 32711  54.4491 189.2069 0177721 236.0513 122.2832  2.00558263114000
GPS BIIRM-8 (PRN 05)    
1 35752U 09043A   23279.89955455 -.00000023  00000+0  00000+0 0  9995
2 35752  55.4624  66.4173 0057828  69.8916 272.2792  2.00556192103618
GPS BIIF-1  (PRN 25)    
1 36585U 10022A   23279.49557862  .00000011  00000+0  00000+0 0  9991
2 36585  54.5520 248.2879 0110414  59.7022 108.0895  2.00563640 97830
GPS BIIF-3  (PRN 24)    
1 38833U 12053A   23279.62416285 -.00000036  00000+0  00000+0 0  9991
2 38833  53.5104 183.8738 0144122  52.6046 308.7416  2.00567798 79694
GPS BIIF-4  (PRN 27)    
1 39166U 13023A   23279.48712244 -.00000040  00000+0  00000+0 0  9992
2 39166  55.3313 308.8261 0114942  41.5889 319.3290  2.00564307 76132
GPS BIIF-5  (PRN 30)    
1 39533U 14008A   23279.48727782 -.00000034  00000+0  00000+0 0  9990
2 39533  53.5971 189.4416 0067093 215.5610 144.0253  2.00553529 69930
GPS BIIF-6  (PRN 06)    
1 39741U 14026A   23279.76881466 -.00000114  00000+0  00000+0 0  9991
2 39741  56.6995   9.7329 0030032 309.7564  50.0093  2.00554948 68792
GPS BIIF-7  (PRN 09)    
1 40105U 14045A   23279.35337158  .00000005  00000+0  00000+0 0  9995
2 40105  54.8249 127.7922 0026966 114.1622 246.1958  2.00549154 67211
GPS BIIF-8  (PRN 03)    
1 40294U 14068A   23278.23277610 -.00000025  00000+0  00000+0 0  9994
2 40294  56.2053  69.2494 0049105  62.6623 297.8413  2.00573904 65432
GPS BIIF-9  (PRN 26)    
1 40534U 15013A   23279.36852376  .00000008  00000+0  00000+0 0  9995
2 40534  53.4504 244.9625 0081979  25.8483 334.5412  2.00552727 62072
GPS BIIF-10 (PRN 08)    
1 40730U 15033A   23279.53036647 -.00000038  00000+0  00000+0 0  9993
2 40730  54.8190 307.4229 0086419  13.9691 346.3159  2.00553583 60241
GPS BIIF-11 (PRN 10)    
1 41019U 15062A   23279.58186964 -.00000018  00000+0  00000+0 0  9997
2 41019  56.1896  69.0473 0090552 221.2648 138.0562  2.00562309 58080
GPS BIIF-12 (PRN 32)    
1 41328U 16007A   23279.17315847  .00000004  00000+0  00000+0 0  9993
2 41328  55.0280 128.5850 0071880 233.5882 125.8218  2.00574222 56084
GPS BIII-1  (PRN 04)    
1 43873U 18109A   23279.06898476  .00000002  00000+0  00000+0 0  9995
2 43873  55.2029 131.1106 0026239 190.0306 349.5047  2.00570068 35316
GPS BIII-2  (PRN 18)    
1 44506U 19056A   23279.55063873 -.00000114  00000+0  00000+0 0  9995
2 44506  55.8251  10.1657 0037899 186.9625 239.3950  2.00566316 30328
GPS BIII-3  (PRN 23)    
1 45854U 20041A   23279.63604300 -.00000021  00000+0  00000+0 0  9990
2 45854  55.9115  67.4489 0037389 187.0728 244.0721  2.00562827 24294
GPS BIII-4  (PRN 14)    
1 46826U 20078A   23279.78816965  .00000010  00000+0  00000+0 0  9995
2 46826  54.2971 250.7454 0036656 194.9154 321.7201  2.00562885 21760
GPS BIII-5  (PRN 11)    
1 48859U 21054A   23279.88494212 -.00000114  00000+0  00000+0 0  9992
2 48859  55.3436  11.9228 0013247 214.8469 194.9215  2.00571962 17018
GPS BIII-6  (PRN 28)    
1 55268U 23009A   23275.90277778  .00000007  00000+0  00000+0 0  9991
2 55268  55.0856 187.2999 0003759  90.8584   3.1568  2.00557648  5410
